CCSDS_OMM_VERS = 2.0
CREATION_DATE  = 
ORIGINATOR     = 

OBJECT_NAME    = TRANSPORTER-15 W
OBJECT_ID      = 2025-276W
CENTER_NAME    = EARTH
REF_FRAME      = TEME
TIME_SYSTEM    = UTC
MEAN_ELEMENT_THEORY = SGP/SGP4

EPOCH          = 2025-12-20T03:07:26.446944
MEAN_MOTION    = 15.16972854
ECCENTRICITY   = .0004001
INCLINATION    = 97.4465
RA_OF_ASC_NODE = 65.7648
ARG_OF_PERICENTER = 256.2752
MEAN_ANOMALY   = 103.8036

EPHEMERIS_TYPE = 0
CLASSIFICATION_TYPE = U
NORAD_CAT_ID   = 66686
ELEMENT_SET_NO = 999
REV_AT_EPOCH   = 324
BSTAR          = .26846E-3
MEAN_MOTION_DOT = .5235E-4
MEAN_MOTION_DDOT = 0

CCSDS_OMM_VERS = 2.0
CREATION_DATE  = 
ORIGINATOR     = 

OBJECT_NAME    = TRANSPORTER-15 X
OBJECT_ID      = 2025-276X
CENTER_NAME    = EARTH
REF_FRAME      = TEME
TIME_SYSTEM    = UTC
MEAN_ELEMENT_THEORY = SGP/SGP4

EPOCH          = 2025-12-20T03:14:22.467264
MEAN_MOTION    = 15.16636652
ECCENTRICITY   = .0008517
INCLINATION    = 97.4399
RA_OF_ASC_NODE = 65.7392
ARG_OF_PERICENTER = 63.9348
MEAN_ANOMALY   = 296.2760

EPHEMERIS_TYPE = 0
CLASSIFICATION_TYPE = U
NORAD_CAT_ID   = 66687
ELEMENT_SET_NO = 999
REV_AT_EPOCH   = 324
BSTAR          = .43002E-3
MEAN_MOTION_DOT = .8354E-4
MEAN_MOTION_DDOT = 0

CCSDS_OMM_VERS = 2.0
CREATION_DATE  = 
ORIGINATOR     = 

OBJECT_NAME    = TRANSPORTER-15 Y
OBJECT_ID      = 2025-276Y
CENTER_NAME    = EARTH
REF_FRAME      = TEME
TIME_SYSTEM    = UTC
MEAN_ELEMENT_THEORY = SGP/SGP4

EPOCH          = 2025-12-20T03:06:19.340064
MEAN_MOTION    = 15.17044694
ECCENTRICITY   = .000357
INCLINATION    = 97.4444
RA_OF_ASC_NODE = 65.7602
ARG_OF_PERICENTER = 261.0045
MEAN_ANOMALY   = 99.0785

EPHEMERIS_TYPE = 0
CLASSIFICATION_TYPE = U
NORAD_CAT_ID   = 66688
ELEMENT_SET_NO = 999
REV_AT_EPOCH   = 324
BSTAR          = .25729E-3
MEAN_MOTION_DOT = .5025E-4
MEAN_MOTION_DDOT = 0

CCSDS_OMM_VERS = 2.0
CREATION_DATE  = 
ORIGINATOR     = 

OBJECT_NAME    = TRANSPORTER-15 Z
OBJECT_ID      = 2025-276Z
CENTER_NAME    = EARTH
REF_FRAME      = TEME
TIME_SYSTEM    = UTC
MEAN_ELEMENT_THEORY = SGP/SGP4

EPOCH          = 2025-12-19T14:22:03.787680
MEAN_MOTION    = 15.17181025
ECCENTRICITY   = .0001369
INCLINATION    = 97.4426
RA_OF_ASC_NODE = 65.2430
ARG_OF_PERICENTER = 288.6889
MEAN_ANOMALY   = 71.4196

EPHEMERIS_TYPE = 0
CLASSIFICATION_TYPE = U
NORAD_CAT_ID   = 66689
ELEMENT_SET_NO = 999
REV_AT_EPOCH   = 316
BSTAR          = .10187E-3
MEAN_MOTION_DOT = .1956E-4
MEAN_MOTION_DDOT = 0

CCSDS_OMM_VERS = 2.0
CREATION_DATE  = 
ORIGINATOR     = 

OBJECT_NAME    = TRANSPORTER-15 AA
OBJECT_ID      = 2025-276AA
CENTER_NAME    = EARTH
REF_FRAME      = TEME
TIME_SYSTEM    = UTC
MEAN_ELEMENT_THEORY = SGP/SGP4

EPOCH          = 2025-12-20T01:31:22.789344
MEAN_MOTION    = 15.17032749
ECCENTRICITY   = .0003269
INCLINATION    = 97.4408
RA_OF_ASC_NODE = 65.6855
ARG_OF_PERICENTER = 265.4105
MEAN_ANOMALY   = 94.6755

EPHEMERIS_TYPE = 0
CLASSIFICATION_TYPE = U
NORAD_CAT_ID   = 66690
ELEMENT_SET_NO = 999
REV_AT_EPOCH   = 323
BSTAR          = .37156E-3
MEAN_MOTION_DOT = .7285E-4
MEAN_MOTION_DDOT = 0

CCSDS_OMM_VERS = 2.0
CREATION_DATE  = 
ORIGINATOR     = 

OBJECT_NAME    = TRANSPORTER-15 AB
OBJECT_ID      = 2025-276AB
CENTER_NAME    = EARTH
REF_FRAME      = TEME
TIME_SYSTEM    = UTC
MEAN_ELEMENT_THEORY = SGP/SGP4

EPOCH          = 2025-12-19T23:54:07.570080
MEAN_MOTION    = 15.17242522
ECCENTRICITY   = .0003619
INCLINATION    = 97.4430
RA_OF_ASC_NODE = 65.6290
ARG_OF_PERICENTER = 262.8846
MEAN_ANOMALY   = 97.1976

EPHEMERIS_TYPE = 0
CLASSIFICATION_TYPE = U
NORAD_CAT_ID   = 66691
ELEMENT_SET_NO = 999
REV_AT_EPOCH   = 322
BSTAR          = .36926E-3
MEAN_MOTION_DOT = .7283E-4
MEAN_MOTION_DDOT = 0

CCSDS_OMM_VERS = 2.0
CREATION_DATE  = 
ORIGINATOR     = 

OBJECT_NAME    = TRANSPORTER-15 AC
OBJECT_ID      = 2025-276AC
CENTER_NAME    = EARTH
REF_FRAME      = TEME
TIME_SYSTEM    = UTC
MEAN_ELEMENT_THEORY = SGP/SGP4

EPOCH          = 2025-12-19T14:20:11.028768
MEAN_MOTION    = 15.17362366
ECCENTRICITY   = .0001801
INCLINATION    = 97.4431
RA_OF_ASC_NODE = 65.2479
ARG_OF_PERICENTER = 289.3043
MEAN_ANOMALY   = 70.7996

EPHEMERIS_TYPE = 0
CLASSIFICATION_TYPE = U
NORAD_CAT_ID   = 66692
ELEMENT_SET_NO = 999
REV_AT_EPOCH   = 316
BSTAR          = .22003E-3
MEAN_MOTION_DOT = .4326E-4
MEAN_MOTION_DDOT = 0

CCSDS_OMM_VERS = 2.0
CREATION_DATE  = 
ORIGINATOR     = 

OBJECT_NAME    = TRANSPORTER-15 AD
OBJECT_ID      = 2025-276AD
CENTER_NAME    = EARTH
REF_FRAME      = TEME
TIME_SYSTEM    = UTC
MEAN_ELEMENT_THEORY = SGP/SGP4

EPOCH          = 2025-12-20T04:35:24.550368
MEAN_MOTION    = 15.17534825
ECCENTRICITY   = .0003199
INCLINATION    = 97.4384
RA_OF_ASC_NODE = 65.8128
ARG_OF_PERICENTER = 288.2588
MEAN_ANOMALY   = 71.8298

EPHEMERIS_TYPE = 0
CLASSIFICATION_TYPE = U
NORAD_CAT_ID   = 66693
ELEMENT_SET_NO = 999
REV_AT_EPOCH   = 325
BSTAR          = .46232E-3
MEAN_MOTION_DOT = .9215E-4
MEAN_MOTION_DDOT = 0

CCSDS_OMM_VERS = 2.0
CREATION_DATE  = 
ORIGINATOR     = 

OBJECT_NAME    = TRANSPORTER-15 AE
OBJECT_ID      = 2025-276AE
CENTER_NAME    = EARTH
REF_FRAME      = TEME
TIME_SYSTEM    = UTC
MEAN_ELEMENT_THEORY = SGP/SGP4

EPOCH          = 2025-12-20T04:32:45.208032
MEAN_MOTION    = 15.17519057
ECCENTRICITY   = .0001283
INCLINATION    = 97.4422
RA_OF_ASC_NODE = 65.8285
ARG_OF_PERICENTER = 279.5897
MEAN_ANOMALY   = 80.5192

EPHEMERIS_TYPE = 0
CLASSIFICATION_TYPE = U
NORAD_CAT_ID   = 66694
ELEMENT_SET_NO = 999
REV_AT_EPOCH   = 325
BSTAR          = .33901E-3
MEAN_MOTION_DOT = .6733E-4
MEAN_MOTION_DDOT = 0

CCSDS_OMM_VERS = 2.0
CREATION_DATE  = 
ORIGINATOR     = 

OBJECT_NAME    = TRANSPORTER-15 AF
OBJECT_ID      = 2025-276AF
CENTER_NAME    = EARTH
REF_FRAME      = TEME
TIME_SYSTEM    = UTC
MEAN_ELEMENT_THEORY = SGP/SGP4

EPOCH          = 2025-12-20T04:19:20.474112
MEAN_MOTION    = 15.18205896
ECCENTRICITY   = .0001198
INCLINATION    = 97.4411
RA_OF_ASC_NODE = 65.8363
ARG_OF_PERICENTER = 150.3537
MEAN_ANOMALY   = 209.7765

EPHEMERIS_TYPE = 0
CLASSIFICATION_TYPE = U
NORAD_CAT_ID   = 66695
ELEMENT_SET_NO = 999
REV_AT_EPOCH   = 325
BSTAR          = .34364E-3
MEAN_MOTION_DOT = .6963E-4
MEAN_MOTION_DDOT = 0

CCSDS_OMM_VERS = 2.0
CREATION_DATE  = 
ORIGINATOR     = 

OBJECT_NAME    = TRANSPORTER-15 AG
OBJECT_ID      = 2025-276AG
CENTER_NAME    = EARTH
REF_FRAME      = TEME
TIME_SYSTEM    = UTC
MEAN_ELEMENT_THEORY = SGP/SGP4

EPOCH          = 2025-12-20T04:35:54.721248
MEAN_MOTION    = 15.17371677
ECCENTRICITY   = .0002421
INCLINATION    = 97.4400
RA_OF_ASC_NODE = 65.8172
ARG_OF_PERICENTER = 282.6641
MEAN_ANOMALY   = 77.4322

EPHEMERIS_TYPE = 0
CLASSIFICATION_TYPE = U
NORAD_CAT_ID   = 66696
ELEMENT_SET_NO = 999
REV_AT_EPOCH   = 325
BSTAR          = .32781E-3
MEAN_MOTION_DOT = .6481E-4
MEAN_MOTION_DDOT = 0

CCSDS_OMM_VERS = 2.0
CREATION_DATE  = 
ORIGINATOR     = 

OBJECT_NAME    = TRANSPORTER-15 AH
OBJECT_ID      = 2025-276AH
CENTER_NAME    = EARTH
REF_FRAME      = TEME
TIME_SYSTEM    = UTC
MEAN_ELEMENT_THEORY = SGP/SGP4

EPOCH          = 2025-12-20T01:10:56.940096
MEAN_MOTION    = 15.18117890
ECCENTRICITY   = .000104
INCLINATION    = 97.4400
RA_OF_ASC_NODE = 65.7023
ARG_OF_PERICENTER = 156.8649
MEAN_ANOMALY   = 203.2632

EPHEMERIS_TYPE = 0
CLASSIFICATION_TYPE = U
NORAD_CAT_ID   = 66697
ELEMENT_SET_NO = 999
REV_AT_EPOCH   = 323
BSTAR          = .32257E-3
MEAN_MOTION_DOT = .6515E-4
MEAN_MOTION_DDOT = 0

