TRANSPORTER-15 W        
1 66686U 25276W   25354.13016721  .00005235  00000+0  26846-3 0  9997
2 66686  97.4465  65.7648 0004001 256.2752 103.8036 15.16972854  3247
TRANSPORTER-15 X        
1 66687U 25276X   25354.13498226  .00008354  00000+0  43002-3 0  9990
2 66687  97.4399  65.7392 0008517  63.9348 296.2760 15.16636652  3244
TRANSPORTER-15 Y        
1 66688U 25276Y   25354.12939051  .00005025  00000+0  25729-3 0  9994
2 66688  97.4444  65.7602 0003570 261.0045  99.0785 15.17044694  3245
TRANSPORTER-15 Z        
1 66689U 25276Z   25353.59865495  .00001956  00000+0  10187-3 0  9996
2 66689  97.4426  65.2430 0001369 288.6889  71.4196 15.17181025  3166
TRANSPORTER-15 AA       
1 66690U 25276AA  25354.06345821  .00007285  00000+0  37156-3 0  9993
2 66690  97.4408  65.6855 0003269 265.4105  94.6755 15.17032749  3232
TRANSPORTER-15 AB       
1 66691U 25276AB  25353.99592095  .00007283  00000+0  36926-3 0  9994
2 66691  97.4430  65.6290 0003619 262.8846  97.1976 15.17242522  3227
TRANSPORTER-15 AC       
1 66692U 25276AC  25353.59734987  .00004326  00000+0  22003-3 0  9995
2 66692  97.4431  65.2479 0001801 289.3043  70.7996 15.17362366  3169
TRANSPORTER-15 AD       
1 66693U 25276AD  25354.19125637  .00009215  00000+0  46232-3 0  9991
2 66693  97.4384  65.8128 0003199 288.2588  71.8298 15.17534825  3256
TRANSPORTER-15 AE       
1 66694U 25276AE  25354.18941213  .00006733  00000+0  33901-3 0  9998
2 66694  97.4422  65.8285 0001283 279.5897  80.5192 15.17519057  3252
TRANSPORTER-15 AF       
1 66695U 25276AF  25354.18009808  .00006963  00000+0  34364-3 0  9993
2 66695  97.4411  65.8363 0001198 150.3537 209.7765 15.18205896  3255
TRANSPORTER-15 AG       
1 66696U 25276AG  25354.19160557  .00006481  00000+0  32781-3 0  9990
2 66696  97.4400  65.8172 0002421 282.6641  77.4322 15.17371677  3256
TRANSPORTER-15 AH       
1 66697U 25276AH  25354.04927014  .00006515  00000+0  32257-3 0  9990
2 66697  97.4400  65.7023 0001040 156.8649 203.2632 15.18117890  3234
